{
  "links" : {
    "next" : "https://api.nasa.gov/neo/rest/v1/feed?start_date=2015-09-09&end_date=2015-09-09&detailed=true&api_key=t0TVs3DtDT2H8Oy2Zy8m2eVrNsAVKAexjcZXUckd",
    "prev" : "https://api.nasa.gov/neo/rest/v1/feed?start_date=2015-09-07&end_date=2015-09-07&detailed=true&api_key=t0TVs3DtDT2H8Oy2Zy8m2eVrNsAVKAexjcZXUckd",
    "self" : "https://api.nasa.gov/neo/rest/v1/feed?start_date=2015-09-08&end_date=2015-09-08&detailed=true&api_key=t0TVs3DtDT2H8Oy2Zy8m2eVrNsAVKAexjcZXUckd"
  },
  "element_count" : 11,
  "near_earth_objects" : {
    "2015-09-08" : [ {
      "links" : {
        "self" : "https://api.nasa.gov/neo/rest/v1/neo/3426410?api_key=t0TVs3DtDT2H8Oy2Zy8m2eVrNsAVKAexjcZXUckd"
      },
      "neo_reference_id" : "3426410",
      "name" : "(2008 QV11)",
      "nasa_jpl_url" : "http://ssd.jpl.nasa.gov/sbdb.cgi?sstr=3426410",
      "absolute_magnitude_h" : 21.0,
      "estimated_diameter" : {
        "kilometers" : {
          "estimated_diameter_min" : 0.1677084622,
          "estimated_diameter_max" : 0.3750075218
        },
        "meters" : {
          "estimated_diameter_min" : 167.7084621628,
          "estimated_diameter_max" : 375.0075217981
        },
        "miles" : {
          "estimated_diameter_min" : 0.1042091748,
          "estimated_diameter_max" : 0.2330187988
        },
        "feet" : {
          "estimated_diameter_min" : 550.2246310023,
          "estimated_diameter_max" : 1230.3396778159
        }
      },
      "is_potentially_hazardous_asteroid" : false,
      "close_approach_data" : [ {
        "close_approach_date" : "2015-09-08",
        "epoch_date_close_approach" : 1441695600000,
        "relative_velocity" : {
          "kilometers_per_second" : "19.7498011992",
          "kilometers_per_hour" : "71099.2843169432",
          "miles_per_hour" : "44178.3303023807"
        },
        "miss_distance" : {
          "astronomical" : "0.2591242983",
          "lunar" : "100.7993545532",
          "kilometers" : "38764444",
          "miles" : "24087110"
        },
        "orbiting_body" : "Earth"
      } ],
      "orbital_data" : {
        "orbit_id" : "16",
        "orbit_determination_date" : "2017-04-06 09:03:02",
        "orbit_uncertainty" : "1",
        "minimum_orbit_intersection" : ".0984179",
        "jupiter_tisserand_invariant" : "6.469",
        "epoch_osculation" : "2458000.5",
        "eccentricity" : ".4527922930841961",
        "semi_major_axis" : ".907864592986423",
        "inclination" : "8.278695740027688",
        "ascending_node_longitude" : "114.3798292883882",
        "orbital_period" : "315.9585012447702",
        "perihelion_distance" : ".4967905021181501",
        "perihelion_argument" : "7.392326563703367",
        "aphelion_distance" : "1.318938683854696",
        "perihelion_time" : "2457968.757085862307",
        "mean_anomaly" : "36.16756328615697",
        "mean_motion" : "1.139390136937988",
        "equinox" : "J2000"
      }
    }, {
      "links" : {
        "self" : "https://api.nasa.gov/neo/rest/v1/neo/3553060?api_key=t0TVs3DtDT2H8Oy2Zy8m2eVrNsAVKAexjcZXUckd"
      },
      "neo_reference_id" : "3553060",
      "name" : "(2010 XT10)",
      "nasa_jpl_url" : "http://ssd.jpl.nasa.gov/sbdb.cgi?sstr=3553060",
      "absolute_magnitude_h" : 26.5,
      "estimated_diameter" : {
        "kilometers" : {
          "estimated_diameter_min" : 0.0133215567,
          "estimated_diameter_max" : 0.0297879063
        },
        "meters" : {
          "estimated_diameter_min" : 13.3215566698,
          "estimated_diameter_max" : 29.7879062798
        },
        "miles" : {
          "estimated_diameter_min" : 0.008277629,
          "estimated_diameter_max" : 0.0185093411
        },
        "feet" : {
          "estimated_diameter_min" : 43.7058959846,
          "estimated_diameter_max" : 97.7293544391
        }
      },
      "is_potentially_hazardous_asteroid" : false,
      "close_approach_data" : [ {
        "close_approach_date" : "2015-09-08",
        "epoch_date_close_approach" : 1441695600000,
        "relative_velocity" : {
          "kilometers_per_second" : "19.1539799774",
          "kilometers_per_hour" : "68954.327918712",
          "miles_per_hour" : "42845.5378114908"
        },
        "miss_distance" : {
          "astronomical" : "0.4917758242",
          "lunar" : "191.3007965088",
          "kilometers" : "73568616",
          "miles" : "45713416"
        },
        "orbiting_body" : "Earth"
      } ],
      "orbital_data" : {
        "orbit_id" : "10",
        "orbit_determination_date" : "2017-04-06 08:55:22",
        "orbit_uncertainty" : "7",
        "minimum_orbit_intersection" : ".0117221",
        "jupiter_tisserand_invariant" : "4.736",
        "epoch_osculation" : "2458000.5",
        "eccentricity" : ".2900829690937606",
        "semi_major_axis" : "1.387790463240606",
        "inclination" : "3.241816863044507",
        "ascending_node_longitude" : "257.4042198000574",
        "orbital_period" : "597.1511527002365",
        "perihelion_distance" : ".9852160851837651",
        "perihelion_argument" : "155.7573515332108",
        "aphelion_distance" : "1.790364841297446",
        "perihelion_time" : "2457907.725969825862",
        "mean_anomaly" : "55.92997804938587",
        "mean_motion" : ".6028624383828598",
        "equinox" : "J2000"
      }
    }, {
      "links" : {
        "self" : "https://api.nasa.gov/neo/rest/v1/neo/3727181?api_key=t0TVs3DtDT2H8Oy2Zy8m2eVrNsAVKAexjcZXUckd"
      },
      "neo_reference_id" : "3727181",
      "name" : "(2015 RO36)",
      "nasa_jpl_url" : "http://ssd.jpl.nasa.gov/sbdb.cgi?sstr=3727181",
      "absolute_magnitude_h" : 22.9,
      "estimated_diameter" : {
        "kilometers" : {
          "estimated_diameter_min" : 0.0699125232,
          "estimated_diameter_max" : 0.1563291544
        },
        "meters" : {
          "estimated_diameter_min" : 69.9125232246,
          "estimated_diameter_max" : 156.3291544087
        },
        "miles" : {
          "estimated_diameter_min" : 0.0434416145,
          "estimated_diameter_max" : 0.097138403
        },
        "feet" : {
          "estimated_diameter_min" : 229.3718026961,
          "estimated_diameter_max" : 512.8909429502
        }
      },
      "is_potentially_hazardous_asteroid" : false,
      "close_approach_data" : [ {
        "close_approach_date" : "2015-09-08",
        "epoch_date_close_approach" : 1441695600000,
        "relative_velocity" : {
          "kilometers_per_second" : "15.8055438246",
          "kilometers_per_hour" : "56899.9577684495",
          "miles_per_hour" : "35355.4209811791"
        },
        "miss_distance" : {
          "astronomical" : "0.0540398688",
          "lunar" : "21.0215091705",
          "kilometers" : "8084249.5",
          "miles" : "5023319.5"
        },
        "orbiting_body" : "Earth"
      } ],
      "orbital_data" : {
        "orbit_id" : "15",
        "orbit_determination_date" : "2017-04-06 08:32:04",
        "orbit_uncertainty" : "6",
        "minimum_orbit_intersection" : ".00673185",
        "jupiter_tisserand_invariant" : "5.264",
        "epoch_osculation" : "2458000.5",
        "eccentricity" : ".4339466260698003",
        "semi_major_axis" : "1.165634645205757",
        "inclination" : "20.32486356456326",
        "ascending_node_longitude" : "348.3607602115189",
        "orbital_period" : "459.6656993911982",
        "perihelion_distance" : ".6598114236886502",
        "perihelion_argument" : "260.6291363164783",
        "aphelion_distance" : "1.671457866722864",
        "perihelion_time" : "2458130.443323059615",
        "mean_anomaly" : "258.231265975646",
        "mean_motion" : ".7831778626876013",
        "equinox" : "J2000"
      }
    } ]
  }
}